NORAD_CAT_ID,OBJECT_NAME,OBJECT_TYPE,EPOCH,MEAN_MOTION,ECCENTRICITY,INCLINATION,RA_OF_ASC_NODE,ARG_OF_PERICENTER,MEAN_ANOMALY,BSTAR,MEAN_MOTION_DOT,MEAN_MOTION_DDOT,TLE_LINE0,TLE_LINE1,TLE_LINE2,SEMIMAJOR_AXIS,PERIOD,APOGEE,PERIGEE,DECAYED
53736.0,STARLINK-4652,PAYLOAD,2024-08-13 12:46:46,15.0880828,0.0001253,53.2165,307.3168,91.7724,268.3411,-0.00056955,-9.333e-05,0.0,0 STARLINK-4652,1 53736U 22107AN  24226.53247948 -.00009333  00000-0 -56955-3 0  9997,2 53736  53.2165 307.3168 0001253  91.7724 268.3411 15.08808280107426,6917.977,95.44,540.709,538.976,0.0
53736.0,STARLINK-4652,PAYLOAD,2024-08-14 04:40:38,15.088093,0.0001135,53.2163,304.3404,60.1149,299.9956,-0.00058481,-9.575e-05,0.0,0 STARLINK-4652,1 53736U 22107AN  24227.19488449 -.00009575  00000-0 -58481-3 0  9997,2 53736  53.2163 304.3404 0001135  60.1149 299.9956 15.08809300107523,6917.974,95.439,540.624,539.054,0.0
53736.0,STARLINK-4652,PAYLOAD,2024-08-14 12:37:33,15.08822979,0.0001336,53.2168,302.8574,87.9146,272.2,-0.00024686,-4.213e-05,0.0,0 STARLINK-4652,1 53736U 22107AN  24227.52608156 -.00004213  00000-0 -24686-3 0  9997,2 53736  53.2168 302.8574 0001336  87.9146 272.2000 15.08822979107572,6917.932,95.439,540.722,538.873,0.0
53736.0,STARLINK-4652,PAYLOAD,2024-08-14 22:09:52,15.08828392,0.0001379,53.2162,301.0728,91.097,269.018,0.00077004,0.00011985,0.0,0 STARLINK-4652,1 53736U 22107AN  24227.92352898  .00011985  00000-0  77004-3 0  9994,2 53736  53.2162 301.0728 0001379  91.0970 269.0180 15.08828392108261,6917.916,95.438,540.735,538.827,0.0
53736.0,STARLINK-4652,PAYLOAD,2024-08-15 10:52:57,15.08861438,0.000134,53.2151,298.6939,92.3899,267.7246,0.0013334,0.00021009,0.0,0 STARLINK-4652,1 53736U 22107AN  24228.45344542  .00021009  00000-0  13334-2 0  9993,2 53736  53.2151 298.6939 0001340  92.3899 267.7246 15.08861438108341,6917.815,95.436,540.607,538.753,0.0
53736.0,STARLINK-4652,PAYLOAD,2024-08-15 17:14:29,15.08875,0.0001329,53.2145,297.5045,89.1224,270.992,0.0014306,0.00022575,0.0,0 STARLINK-4652,1 53736U 22107AN  24228.71839994  .00022575  00000-0  14306-2 0  9991,2 53736  53.2145 297.5045 0001329  89.1224 270.9920 15.08875000107752,6917.773,95.435,540.558,538.719,0.0
53736.0,STARLINK-4652,PAYLOAD,2024-08-15 22:00:38,15.08874088,0.0001319,53.2137,296.6118,90.2793,269.835,0.0011423,0.00017955,0.0,0 STARLINK-4652,1 53736U 22107AN  24228.91711716  .00017955  00000-0  11423-2 0  9997,2 53736  53.2137 296.6118 0001319  90.2793 269.8350 15.08874088108410,6917.776,95.435,540.554,538.729,0.0
53736.0,STARLINK-4652,PAYLOAD,2024-08-16 09:08:20,15.08858488,0.0002611,53.2145,294.5275,98.8237,261.3051,0.00074625,0.00011615,0.0,0 STARLINK-4652,1 53736U 22107AN  24229.38079833  .00011615  00000-0  74625-3 0  9997,2 53736  53.2145 294.5275 0002611  98.8237 261.3051 15.08858488107851,6917.824,95.436,541.495,537.883,0.0
53736.0,STARLINK-4652,PAYLOAD,2024-08-17 04:12:58,15.08842847,0.0001764,53.2128,290.9619,97.8956,262.2237,0.00010188,1.334e-05,0.0,0 STARLINK-4652,1 53736U 22107AN  24230.17567632  .00001334  00000-0  10188-3 0  9996,2 53736  53.2128 290.9619 0001764  97.8956 262.2237 15.08842847107970,6917.872,95.437,540.957,538.516,0.0
53736.0,STARLINK-4652,PAYLOAD,2024-08-17 07:23:44,15.08842217,0.0001139,53.2156,290.358,95.1448,264.9674,-3.4835e-05,-8.42e-06,0.0,0 STARLINK-4652,1 53736U 22107AN  24230.30815850 -.00000842  00000-0 -34835-4 0  9990,2 53736  53.2156 290.3580 0001139  95.1448 264.9674 15.08842217108623,6917.874,95.437,540.527,538.951,0.0
53736.0,STARLINK-4652,PAYLOAD,2024-08-17 13:45:18,15.08830553,0.000132,53.2147,289.1748,85.7419,274.3724,-0.00022427,-3.854e-05,0.0,0 STARLINK-4652,1 53736U 22107AN  24230.57312605 -.00003854  00000-0 -22427-3 0  9998,2 53736  53.2147 289.1748 0001320  85.7419 274.3724 15.08830553108036,6917.909,95.438,540.687,538.861,0.0
53736.0,STARLINK-4652,PAYLOAD,2024-08-18 08:49:55,15.08838927,0.0001165,53.2145,285.6088,70.2357,289.8761,0.00017691,2.529e-05,0.0,0 STARLINK-4652,1 53736U 22107AN  24231.36800564  .00002529  00000-0  17691-3 0  9995,2 53736  53.2145 285.6088 0001165  70.2357 289.8761 15.08838927108157,6917.884,95.438,540.555,538.943,0.0
53736.0,STARLINK-4652,PAYLOAD,2024-08-19 11:51:29,15.08847793,0.0001382,53.2148,280.554,80.2869,279.8279,0.00035302,5.336e-05,0.0,0 STARLINK-4652,1 53736U 22107AN  24232.49408604  .00005336  00000-0  35302-3 0  9997,2 53736  53.2148 280.5540 0001382  80.2869 279.8279 15.08847793108320,6917.857,95.437,540.678,538.766,0.0
53736.0,STARLINK-4652,PAYLOAD,2024-08-19 13:26:52,15.08848528,0.0001431,53.215,280.2575,82.3795,277.736,0.00027031,4.018e-05,0.0,0 STARLINK-4652,1 53736U 22107AN  24232.56032537  .00004018  00000-0  27031-3 0  9999,2 53736  53.2150 280.2575 0001431  82.3795 277.7360 15.08848528108969,6917.854,95.437,540.709,538.729,0.0
53736.0,STARLINK-4652,PAYLOAD,2024-08-20 10:06:52,15.08846827,0.000142,53.2145,276.3909,81.7705,278.3448,7.5603e-05,9.16e-06,0.0,0 STARLINK-4652,1 53736U 22107AN  24233.42144150  .00000916  00000-0  75603-4 0  9992,2 53736  53.2145 276.3909 0001420  81.7705 278.3448 15.08846827108461,6917.86,95.437,540.707,538.742,0.0
53736.0,STARLINK-4652,PAYLOAD,2024-08-21 09:57:39,15.08839026,0.0001427,53.2144,271.9301,81.6846,278.4308,-4.7841e-06,-3.64e-06,0.0,0 STARLINK-4652,1 53736U 22107AN  24234.41504352 -.00000364  00000-0 -47841-5 0  9999,2 53736  53.2144 271.9301 0001427  81.6846 278.4308 15.08839026108615,6917.883,95.438,540.736,538.761,0.0
53736.0,STARLINK-4652,PAYLOAD,2024-08-21 19:29:58,15.08841633,0.0001388,53.2153,270.146,85.7696,274.3455,5.9684e-05,6.62e-06,0.0,0 STARLINK-4652,1 53736U 22107AN  24234.81248526  .00000662  00000-0  59684-4 0  9997,2 53736  53.2153 270.1460 0001388  85.7696 274.3455 15.08841633109308,6917.875,95.437,540.701,538.78,0.0
